NORAD_CAT_ID,OBJECT_NAME,OBJECT_TYPE,EPOCH,MEAN_MOTION,ECCENTRICITY,INCLINATION,RA_OF_ASC_NODE,ARG_OF_PERICENTER,MEAN_ANOMALY,BSTAR,MEAN_MOTION_DOT,MEAN_MOTION_DDOT,TLE_LINE0,TLE_LINE1,TLE_LINE2,SEMIMAJOR_AXIS,PERIOD,APOGEE,PERIGEE,DECAYED
53898.0,STARLINK-5044,PAYLOAD,2023-03-27 08:02:26,15.08822909,0.0001011,53.2178,124.7613,100.2199,259.8907,0.00018842,2.711e-05,0.0,0 STARLINK-5044,1 53898U 22119N   23086.33502749  .00002711  00000-0  18842-3 0  9997,2 53898  53.2178 124.7613 0001011 100.2199 259.8907 15.08822909 28475,6917.933,95.439,540.497,539.098,0.0
53898.0,STARLINK-5044,PAYLOAD,2023-03-27 12:48:35,15.08828037,8.51e-05,53.2173,123.869,87.7844,272.3246,0.00020135,2.917e-05,0.0,0 STARLINK-5044,1 53898U 22119N   23086.53374521  .00002917  00000-0  20135-3 0  9990,2 53898  53.2173 123.8690 0000851  87.7844 272.3246 15.08828037 28926,6917.917,95.438,540.371,539.193,0.0
53898.0,STARLINK-5044,PAYLOAD,2023-03-27 19:10:08,15.08829237,7.85e-05,53.2172,122.6799,88.9464,271.1618,0.00013998,1.94e-05,0.0,0 STARLINK-5044,1 53898U 22119N   23086.79870819  .00001940  00000-0  13998-3 0  9993,2 53898  53.2172 122.6799 0000785  88.9464 271.1618 15.08829237 28966,6917.913,95.438,540.321,539.235,0.0
53898.0,STARLINK-5044,PAYLOAD,2023-03-28 11:03:59,15.08845292,9.54e-05,53.2176,119.7062,80.6168,279.4932,2.779e-05,1.55e-06,0.0,0 STARLINK-5044,1 53898U 22119N   23087.46110366  .00000155  00000-0  27790-4 0  9995,2 53898  53.2176 119.7062 0000954  80.6168 279.4932 15.08845292 28642,6917.864,95.437,540.389,539.069,0.0
53898.0,STARLINK-5044,PAYLOAD,2023-03-28 19:00:55,15.08842556,0.0001083,53.2179,118.2219,72.6192,287.4919,-6.3774e-05,-1.303e-05,0.0,0 STARLINK-5044,1 53898U 22119N   23087.79230857 -.00001303  00000-0 -63774-4 0  9999,2 53898  53.2179 118.2219 0001083  72.6192 287.4919 15.08842556 29112,6917.873,95.437,540.487,538.988,0.0
53898.0,STARLINK-5044,PAYLOAD,2023-03-29 01:22:28,15.08832207,8.68e-05,53.2171,117.0315,81.4777,278.6313,1.0591e-05,-1.19e-06,0.0,0 STARLINK-5044,1 53898U 22119N   23088.05727214 -.00000119  00000-0  10591-4 0  9999,2 53898  53.2171 117.0315 0000868  81.4777 278.6313 15.08832207 28734,6917.904,95.438,540.37,539.169,0.0
53898.0,STARLINK-5044,PAYLOAD,2023-03-29 09:19:23,15.08837642,9.91e-05,53.2176,115.5442,85.2521,274.8584,-2.7566e-05,-7.26e-06,0.0,0 STARLINK-5044,1 53898U 22119N   23088.38847162 -.00000726  00000-0 -27566-4 0  9995,2 53898  53.2176 115.5442 0000991  85.2521 274.8584 15.08837642 29208,6917.888,95.438,540.438,539.067,0.0
53898.0,STARLINK-5044,PAYLOAD,2023-03-29 14:05:32,15.08844082,0.0001102,53.2181,114.6513,86.0208,274.091,1.7648e-05,-7e-08,0.0,0 STARLINK-5044,1 53898U 22119N   23088.58718594 -.00000007  00000-0  17648-4 0  9994,2 53898  53.2181 114.6513 0001102  86.0208 274.0910 15.08844082 28816,6917.868,95.437,540.495,538.971,0.0
53898.0,STARLINK-5044,PAYLOAD,2023-03-30 01:13:15,15.08834439,0.0001068,53.2183,112.5708,85.6014,274.51,5.0533e-06,-2.07e-06,0.0,0 STARLINK-5044,1 53898U 22119N   23089.05087249 -.00000207  00000-0  50533-5 0  9996,2 53898  53.2183 112.5708 0001068  85.6014 274.5100 15.08834439 28880,6917.897,95.438,540.501,539.024,0.0
53898.0,STARLINK-5044,PAYLOAD,2023-03-30 10:45:33,15.08846611,0.0001113,53.2171,110.7854,104.2885,255.8231,-6.4164e-06,-3.9e-06,0.0,0 STARLINK-5044,1 53898U 22119N   23089.44830454 -.00000390  00000-0 -64164-5 0  9992,2 53898  53.2171 110.7854 0001113 104.2885 255.8231 15.08846611 28943,6917.86,95.437,540.495,538.955,0.0
53898.0,STARLINK-5044,PAYLOAD,2023-03-30 13:56:19,15.08850743,9.94e-05,53.2171,110.1909,101.4798,258.6305,3.0264e-05,1.94e-06,0.0,0 STARLINK-5044,1 53898U 22119N   23089.58077974  .00000194  00000-0  30264-4 0  9990,2 53898  53.2171 110.1909 0000994 101.4798 258.6305 15.08850743 29389,6917.848,95.437,540.4,539.025,0.0
53898.0,STARLINK-5044,PAYLOAD,2023-03-31 01:04:02,15.08828665,9.41e-05,53.2186,108.11,80.9946,279.1153,-2.2199e-05,-6.41e-06,0.0,0 STARLINK-5044,1 53898U 22119N   23090.04447652 -.00000641  00000-0 -22199-4 0  9994,2 53898  53.2186 108.1100 0000941  80.9946 279.1153 15.08828665 29032,6917.915,95.438,540.431,539.129,0.0
53898.0,STARLINK-5044,PAYLOAD,2023-03-31 07:25:34,15.08838002,0.0001309,53.2176,106.9211,80.6955,279.4185,2.5444e-05,1.17e-06,0.0,0 STARLINK-5044,1 53898U 22119N   23090.30943046  .00000117  00000-0  25444-4 0  9993,2 53898  53.2176 106.9211 0001309  80.6955 279.4185 15.08838002 29074,6917.886,95.438,540.657,538.846,0.0
53898.0,STARLINK-5044,PAYLOAD,2023-04-01 07:16:21,15.08840183,0.0001183,53.2177,102.4595,98.5435,261.5691,-5.483e-05,-1.16e-05,0.0,0 STARLINK-5044,1 53898U 22119N   23091.30303148 -.00001160  00000-0 -54830-4 0  9999,2 53898  53.2177 102.4595 0001183  98.5435 261.5691 15.08840183 29642,6917.88,95.438,540.563,538.926,0.0
53898.0,STARLINK-5044,PAYLOAD,2023-04-02 03:56:22,15.08837921,0.0001313,53.2183,98.5943,99.188,260.9261,-8.1111e-06,-4.17e-06,0.0,0 STARLINK-5044,1 53898U 22119N   23092.16415187 -.00000417  00000-0 -81111-5 0  9998,2 53898  53.2183  98.5943 0001313  99.1880 260.9261 15.08837921 29357,6917.887,95.438,540.66,538.843,0.0
53898.0,STARLINK-5044,PAYLOAD,2023-04-02 10:17:55,15.08840665,0.0001282,53.2177,97.4041,96.0859,264.028,1.2487e-05,-8.9e-07,0.0,0 STARLINK-5044,1 53898U 22119N   23092.42910948 -.00000089  00000-0  12487-4 0  9995,2 53898  53.2177  97.4041 0001282  96.0859 264.0280 15.08840665 29810,6917.878,95.438,540.63,538.856,0.0
53898.0,STARLINK-5044,PAYLOAD,2023-04-03 06:57:56,15.08838146,0.0001265,53.2178,93.5391,96.096,264.0176,4.2999e-05,3.96e-06,0.0,0 STARLINK-5044,1 53898U 22119N   23093.29023159  .00000396  00000-0  42999-4 0  9991,2 53898  53.2178  93.5391 0001265  96.0960 264.0176 15.08838146 29523,6917.886,95.438,540.626,538.876,0.0
53898.0,STARLINK-5044,PAYLOAD,2023-04-03 16:30:15,15.08835805,0.0001053,53.2173,91.7554,100.4907,259.6204,1.5804e-05,-3.6e-07,0.0,0 STARLINK-5044,1 53898U 22119N   23093.68767412 -.00000036  00000-0  15804-4 0  9998,2 53898  53.2173  91.7554 0001053 100.4907 259.6204 15.08835805 30001,6917.893,95.438,540.487,539.03,0.0
53898.0,STARLINK-5044,PAYLOAD,2023-04-04 08:24:06,15.08844317,0.0001164,53.2183,88.7838,100.6685,259.4438,2.6335e-05,1.31e-06,0.0,0 STARLINK-5044,1 53898U 22119N   23094.35006994  .00000131  00000-0  26335-4 0  9990,2 53898  53.2183  88.7838 0001164 100.6685 259.4438 15.08844317 29688,6917.867,95.437,540.537,538.927,0.0
53898.0,STARLINK-5044,PAYLOAD,2023-04-05 05:04:08,15.08830097,0.000122,53.2186,84.9183,100.7307,259.3823,-4.6022e-05,-1.02e-05,0.0,0 STARLINK-5044,1 53898U 22119N   23095.21120389 -.00001020  00000-0 -46022-4 0  9996,2 53898  53.2186  84.9183 0001220 100.7307 259.3823 15.08830097 29819,6917.911,95.438,540.62,538.932,0.0
53898.0,STARLINK-5044,PAYLOAD,2023-04-05 11:25:40,15.0883664,0.0001153,53.2183,83.727,100.1799,259.9323,-1.1704e-05,-4.74e-06,0.0,0 STARLINK-5044,1 53898U 22119N   23095.47615929 -.00000474  00000-0 -11704-4 0  9994,2 53898  53.2183  83.7270 0001153 100.1799 259.9323 15.08836640 29859,6917.891,95.438,540.553,538.958,0.0
53898.0,STARLINK-5044,PAYLOAD,2023-04-05 16:11:49,15.0883515,0.0001085,53.2178,82.8355,95.9161,264.1955,3.7089e-06,-2.29e-06,0.0,0 STARLINK-5044,1 53898U 22119N   23095.67488021 -.00000229  00000-0  37089-5 0  9999,2 53898  53.2178  82.8355 0001085  95.9161 264.1955 15.08835150 30301,6917.895,95.438,540.511,539.01,0.0
53898.0,STARLINK-5044,PAYLOAD,2023-04-06 08:05:40,15.08838696,0.0001704,53.2189,79.8595,106.8664,253.2515,0.00015237,2.138e-05,0.0,0 STARLINK-5044,1 53898U 22119N   23096.33727312  .00002138  00000-0  15237-3 0  9991,2 53898  53.2189  79.8595 0001704 106.8664 253.2515 15.08838696 29984,6917.884,95.438,540.928,538.571,0.0
53898.0,STARLINK-5044,PAYLOAD,2023-04-06 16:02:36,15.08838171,0.0001309,53.2192,78.3746,83.0349,277.0792,-2.4449e-05,-6.77e-06,0.0,0 STARLINK-5044,1 53898U 22119N   23096.66847948 -.00000677  00000-0 -24449-4 0  9999,2 53898  53.2192  78.3746 0001309  83.0349 277.0792 15.08838171 30034,6917.886,95.438,540.657,538.845,0.0
53898.0,STARLINK-5044,PAYLOAD,2023-04-07 07:56:28,15.08835551,0.0001083,53.2185,75.4001,88.2242,271.8874,4.9588e-06,-2.09e-06,0.0,0 STARLINK-5044,1 53898U 22119N   23097.33088259 -.00000209  00000-0  49588-5 0  9998,2 53898  53.2185  75.4001 0001083  88.2242 271.8874 15.08835551 30555,6917.894,95.438,540.508,539.01,0.0
53898.0,STARLINK-5044,PAYLOAD,2023-04-08 04:36:28,15.0884498,0.000119,53.2193,71.5337,89.0233,271.0896,2.7309e-05,1.47e-06,0.0,0 STARLINK-5044,1 53898U 22119N   23098.19199511  .00000147  00000-0  27309-4 0  9993,2 53898  53.2193  71.5337 0001190  89.0233 271.0896 15.08844980 30261,6917.865,95.437,540.553,538.907,0.0
53898.0,STARLINK-5044,PAYLOAD,2023-04-08 07:47:14,15.08848488,0.0001106,53.2183,70.9395,83.7926,276.3192,1.7068e-05,-1.6e-07,0.0,0 STARLINK-5044,1 53898U 22119N   23098.32447283 -.00000016  00000-0  17068-4 0  9997,2 53898  53.2183  70.9395 0001106  83.7926 276.3192 15.08848488 30707,6917.854,95.437,540.485,538.954,0.0
53898.0,STARLINK-5044,PAYLOAD,2023-04-09 07:38:01,15.08842808,0.0001355,53.2193,66.4793,90.1195,269.9953,1.3628e-05,-7.1e-07,0.0,0 STARLINK-5044,1 53898U 22119N   23099.31807631 -.00000071  00000-0  13628-4 0  9993,2 53898  53.2193  66.4793 0001355  90.1195 269.9953 15.08842808 30439,6917.872,95.437,540.674,538.799,0.0
53898.0,STARLINK-5044,PAYLOAD,2023-04-10 07:28:48,15.08844272,0.0001308,53.2184,62.0197,96.3799,263.7342,-5.4999e-05,-1.163e-05,0.0,0 STARLINK-5044,1 53898U 22119N   23100.31167806 -.00001163  00000-0 -54999-4 0  9999,2 53898  53.2184  62.0197 0001308  96.3799 263.7342 15.08844272 31000,6917.867,95.437,540.637,538.827,0.0
53898.0,STARLINK-5044,PAYLOAD,2023-04-10 21:47:17,15.08832216,0.0001392,53.2182,59.3428,100.4126,259.7023,-2.5867e-05,-6.99e-06,0.0,0 STARLINK-5044,1 53898U 22119N   23100.90784555 -.00000699  00000-0 -25867-4 0  9995,2 53898  53.2182  59.3428 0001392 100.4126 259.7023 15.08832216 31093,6917.904,95.438,540.732,538.806,0.0
